#aV2022 12 18  0  0  0.00000000     288 DD+AD WGS84 FIT  NGA
## 2241      0.00000000   300.00000000 59931 0.0000000000000
+   31     1  2  3  4  5  6  7  8  9 10 11 12 13 14 15 16 17
+         18 19 20 21 22 23 24 25 26 27 29 30 31 32  0  0  0
+          0  0  0  0  0  0  0  0  0  0  0  0  0  0  0  0  0
+          0  0  0  0  0  0  0  0  0  0  0  0  0  0  0  0  0
+          0  0  0  0  0  0  0  0  0  0  0  0  0  0  0  0  0
++         2  2  2  2  2  2  2  2  2  2  2  2  2  2  2  2  2
++         2  2  2  2  2  2  2  2  2  2  2  2  2  2  0  0  0
++         0  0  0  0  0  0  0  0  0  0  0  0  0  0  0  0  0
++         0  0  0  0  0  0  0  0  0  0  0  0  0  0  0  0  0
++         0  0  0  0  0  0  0  0  0  0  0  0  0  0  0  0  0
%c cc cc ccc ccc cccc cccc cccc cccc ccccc ccccc ccccc ccccc
%c cc cc ccc ccc cccc cccc cccc cccc ccccc ccccc ccccc ccccc
%f  0.0000000  0.000000000  0.00000000000  0.000000000000000
%f  0.0000000  0.000000000  0.00000000000  0.000000000000000
%i    0    0    0    0      0      0      0      0         0
%i    0    0    0    0      0      0      0      0         0
/*      NGA, ST. LOUIS,MO.                                  
/*   EPHEMERIS COMPUTED FROM 2 DAYS OF DATA                 
/*   EPOCHA v8 SMOOTHER                                     
/*   G2139 IERS2010 SATIGS SATAPC                           
*  2022 12 18 13 15  0.00000000
P  1 -13107.778785  14321.691253  17649.791336    236.080556                    
V  1    892.994851 -23133.240855  19431.810848     -0.051593                    
P  2  10775.936470 -18263.606064 -15490.132760   -632.373333                    
V  2   1795.522842  20742.814053 -22103.622295      0.020236                    
P  3 -23199.306435  12621.286828  -2330.173471   -375.220042                    
V  3  -3555.802851   -955.356096  32000.319636      0.003021                    
P  4 -15644.004488   6210.163991 -20569.449966    -66.223544                    
V  4 -20371.238261 -16329.030639  10456.627611      0.071975                    
P  5  23855.619978  -3561.322914 -11421.557140   -108.544618                    
V  5 -11555.420380   8533.755926 -27089.150951     -0.014589                    
P  6   6475.146227  22216.942523 -12889.550615    542.536300                    
V  6  -3162.375056  16244.803476  26348.933375      0.074707                    
P  7  -6308.479315  24777.300982  -5739.752527    272.617166                    
V  7  -2810.004694  -8224.408343 -30679.549547     -0.055566                    
P  8 -22535.857353  -3194.225905  13950.209625    -99.246596                    
V  8 -13667.000912 -11323.472702 -24217.451324     -0.018324                    
P  9  -4592.096310  15138.039080 -21410.204250   -251.464025                    
V  9 -22794.610814 -14526.560699  -5447.582132      0.061537                    
P 10  -2059.012254 -15276.740614  21754.140080    -16.631311                    
V 10  24849.291222 -11148.777054  -5826.433975     -0.016594                    
P 11  12680.364094  11408.670814 -20359.120637    -59.471484                    
V 11  -4480.845224  25478.506388  11445.284170     -0.075714                    
P 12  24266.300522 -10570.606098  -1617.471439   -317.402025                    
V 12   2581.378770   1882.158233  31882.246846     -0.045343                    
P 13  22025.237840  11806.610206   9094.230857    444.076499                    
V 13   7116.894441   9586.184596 -28931.804037      0.065706                    
P 14   -946.186987  16526.621617  20753.583782    -66.037113                    
V 14 -24631.978814   9541.657076  -8840.389587      0.065143                    
P 15  22775.663282    425.928902  13433.150628     -3.046700                    
V 15  14527.108037  10615.683692 -23885.851980      0.032299                    
P 16 -22621.653395  -2300.451467 -14393.575626   -525.930989                    
V 16  15974.948555  -7524.866993 -23938.677844      0.006356                    
P 17   7831.387243  20005.773910  16001.065617    686.860599                    
V 17 -16250.964563 -10912.284662  22295.743827      0.029070                    
P 18   5195.318545 -25706.083896  -3681.471455    -63.831652                    
V 18   2022.523093   4926.805970 -31660.165651     -0.147033                    
P 19  17149.164367  19688.380681   5360.379614    252.158606                    
V 19  -6698.631708  -3022.966035  30935.411512      0.050767                    
P 20  16982.841640   5446.784074 -19589.571380    462.780595                    
V 20 -19795.733703  15407.582358 -13082.018405     -0.024880                    
P 21 -15196.738235   4768.584149  21751.269533    153.538122                    
V 21   -779.419595 -26338.275666   6153.824490     -0.009481                    
P 22 -18698.953292 -18727.944432   3612.365779    387.261175                    
V 22   4751.510287    597.266066  31227.924014      0.078394                    
P 23   9968.490568 -17898.359882  16821.936012      0.317908                    
V 23  19849.011052  -8156.446851 -20574.843672      0.007106                    
P 24  14330.316342 -10340.017509  19362.790375     10.123271                    
V 24   1745.693262  25554.281570  12560.329966     -0.173057                    
P 25  17896.053986 -16688.804204 -10265.880746    403.174929                    
V 25  12659.469305  -2996.437911  28033.912759      0.035195                    
P 26 -13927.425704  -9680.078448 -20607.456220    238.649567                    
V 26  22361.696645 -13218.521799  -8609.587244      0.007971                    
P 27 -23215.802907 -12619.770768   4133.453179    149.973868                    
V 27  -3252.363628  -4898.484045 -31115.677175     -0.099373                    
P 29   7736.538598 -12787.846970 -21993.526823   -574.835258                    
V 29  21665.896330  17381.837773  -2565.950857     -0.025017                    
P 30   1744.370115  25757.184610   5726.629693   -535.178086                    
V 30  -4375.658676   6848.746495 -30196.317736      0.006664                    
P 31  -7899.451518 -20846.875301 -14241.722523   -203.642331                    
V 31   4464.306071 -17633.076396  24057.635175     -0.011537                    
P 32 -11908.284160 -19691.446652  13590.456682   -333.920836                    
V 32  15148.527222   7836.883384  24713.885062     -0.131198                    
EOF
